STARLINK-32451          
1 61857U 24202N   26067.55041006  .00001201  00000+0  53177-4 0  9999
2 61857  43.0033 244.4046 0001791 276.2147  83.8500 15.27578742 75164
TEVEL2-8                
1 63239U 25052AF  26068.66815442  .00019130  00000+0  69304-3 0  9993
2 63239  97.4055 324.2923 0008031 124.9191 235.2804 15.28392908 54807
